[{"OBJECT_NAME":"ONEWEB-0198","OBJECT_ID":"2021-031G","EPOCH":"2026-03-16T03:13:53.594976","MEAN_MOTION":13.14502984,"ECCENTRICITY":0.00021065,"INCLINATION":87.897,"RA_OF_ASC_NODE":308.2888,"ARG_OF_PERICENTER":79.3782,"MEAN_ANOMALY":280.7585,"EPHEMERIS_TYPE":0,"CLASSIFICATION_TYPE":"U","NORAD_CAT_ID":48216,"ELEMENT_SET_NO":999,"REV_AT_EPOCH":23626,"BSTAR":-0.00035653083,"MEAN_MOTION_DOT":-1.19e-6,"MEAN_MOTION_DDOT":0},{"OBJECT_NAME":"ONEWEB-0189","OBJECT_ID":"2021-031H","EPOCH":"2026-03-16T03:31:57.889056","MEAN_MOTION":13.14503489,"ECCENTRICITY":0.00020414,"INCLINATION":87.8976,"RA_OF_ASC_NODE":308.2633,"ARG_OF_PERICENTER":80.8861,"MEAN_ANOMALY":279.2499,"EPHEMERIS_TYPE":0,"CLASSIFICATION_TYPE":"U","NORAD_CAT_ID":48217,"ELEMENT_SET_NO":999,"REV_AT_EPOCH":23600,"BSTAR":-2.9057999e-5,"MEAN_MOTION_DOT":2.0e-8,"MEAN_MOTION_DDOT":0},{"OBJECT_NAME":"ONEWEB-0196","OBJECT_ID":"2021-031J","EPOCH":"2026-03-16T04:49:35.763168","MEAN_MOTION":13.14503804,"ECCENTRICITY":0.0001796,"INCLINATION":87.8976,"RA_OF_ASC_NODE":308.2634,"ARG_OF_PERICENTER":79.5906,"MEAN_ANOMALY":280.5426,"EPHEMERIS_TYPE":0,"CLASSIFICATION_TYPE":"U","NORAD_CAT_ID":48218,"ELEMENT_SET_NO":999,"REV_AT_EPOCH":23601,"BSTAR":-0.00031381124,"MEAN_MOTION_DOT":-1.04e-6,"MEAN_MOTION_DDOT":0},{"OBJECT_NAME":"ONEWEB-0183","OBJECT_ID":"2021-031K","EPOCH":"2026-03-16T04:13:04.152864","MEAN_MOTION":13.1450295,"ECCENTRICITY":0.00014998,"INCLINATION":87.8974,"RA_OF_ASC_NODE":308.2686,"ARG_OF_PERICENTER":76.0021,"MEAN_ANOMALY":284.1275,"EPHEMERIS_TYPE":0,"CLASSIFICATION_TYPE":"U","NORAD_CAT_ID":48219,"ELEMENT_SET_NO":999,"REV_AT_EPOCH":23610,"BSTAR":0.00081122762,"MEAN_MOTION_DOT":3.14e-6,"MEAN_MOTION_DDOT":0},{"OBJECT_NAME":"ONEWEB-0185","OBJECT_ID":"2021-031L","EPOCH":"2026-03-16T03:01:07.846464","MEAN_MOTION":13.14502239,"ECCENTRICITY":0.00016959,"INCLINATION":87.8979,"RA_OF_ASC_NODE":308.264,"ARG_OF_PERICENTER":68.1881,"MEAN_ANOMALY":291.9429,"EPHEMERIS_TYPE":0,"CLASSIFICATION_TYPE":"U","NORAD_CAT_ID":48220,"ELEMENT_SET_NO":999,"REV_AT_EPOCH":23602,"BSTAR":-0.00050861874,"MEAN_MOTION_DOT":-1.76e-6,"MEAN_MOTION_DDOT":0},{"OBJECT_NAME":"ONEWEB-0187","OBJECT_ID":"2021-031M","EPOCH":"2026-03-16T04:22:00.252768","MEAN_MOTION":13.14503037,"ECCENTRICITY":0.00018127,"INCLINATION":87.8965,"RA_OF_ASC_NODE":308.2846,"ARG_OF_PERICENTER":74.6777,"MEAN_ANOMALY":285.4553,"EPHEMERIS_TYPE":0,"CLASSIFICATION_TYPE":"U","NORAD_CAT_ID":48221,"ELEMENT_SET_NO":999,"REV_AT_EPOCH":23604,"BSTAR":0.00064118193,"MEAN_MOTION_DOT":2.51e-6,"MEAN_MOTION_DDOT":0},{"OBJECT_NAME":"ONEWEB-0192","OBJECT_ID":"2021-031N","EPOCH":"2026-03-16T03:38:48.689088","MEAN_MOTION":13.14503384,"ECCENTRICITY":0.00017535,"INCLINATION":87.8961,"RA_OF_ASC_NODE":308.2795,"ARG_OF_PERICENTER":83.4764,"MEAN_ANOMALY":276.6565,"EPHEMERIS_TYPE":0,"CLASSIFICATION_TYPE":"U","NORAD_CAT_ID":48222,"ELEMENT_SET_NO":999,"REV_AT_EPOCH":23595,"BSTAR":0.00017571299,"MEAN_MOTION_DOT":7.8e-7,"MEAN_MOTION_DDOT":0},{"OBJECT_NAME":"ONEWEB-0219","OBJECT_ID":"2021-031P","EPOCH":"2026-03-16T03:09:07.092576","MEAN_MOTION":13.14503756,"ECCENTRICITY":0.00017409,"INCLINATION":87.8975,"RA_OF_ASC_NODE":308.2691,"ARG_OF_PERICENTER":73.8188,"MEAN_ANOMALY":286.3134,"EPHEMERIS_TYPE":0,"CLASSIFICATION_TYPE":"U","NORAD_CAT_ID":48223,"ELEMENT_SET_NO":999,"REV_AT_EPOCH":23615,"BSTAR":-0.00035068735,"MEAN_MOTION_DOT":-1.17e-6,"MEAN_MOTION_DDOT":0},{"OBJECT_NAME":"ONEWEB-0202","OBJECT_ID":"2021-031Q","EPOCH":"2026-03-16T02:41:43.011168","MEAN_MOTION":13.14501432,"ECCENTRICITY":0.00023525,"INCLINATION":87.8975,"RA_OF_ASC_NODE":308.2819,"ARG_OF_PERICENTER":87.5149,"MEAN_ANOMALY":272.625,"EPHEMERIS_TYPE":0,"CLASSIFICATION_TYPE":"U","NORAD_CAT_ID":48224,"ELEMENT_SET_NO":999,"REV_AT_EPOCH":23613,"BSTAR":0.00015979654,"MEAN_MOTION_DOT":7.2e-7,"MEAN_MOTION_DDOT":0},{"OBJECT_NAME":"ONEWEB-0204","OBJECT_ID":"2021-031R","EPOCH":"2026-03-16T03:30:48.349152","MEAN_MOTION":13.14504487,"ECCENTRICITY":0.00014485,"INCLINATION":87.8973,"RA_OF_ASC_NODE":308.269,"ARG_OF_PERICENTER":73.7419,"MEAN_ANOMALY":286.387,"EPHEMERIS_TYPE":0,"CLASSIFICATION_TYPE":"U","NORAD_CAT_ID":48225,"ELEMENT_SET_NO":999,"REV_AT_EPOCH":23603,"BSTAR":8.509342e-6,"MEAN_MOTION_DOT":1.6e-7,"MEAN_MOTION_DDOT":0},{"OBJECT_NAME":"ONEWEB-0205","OBJECT_ID":"2021-031S","EPOCH":"2026-03-16T04:45:01.871712","MEAN_MOTION":13.14503412,"ECCENTRICITY":0.00017424,"INCLINATION":87.8976,"RA_OF_ASC_NODE":308.2511,"ARG_OF_PERICENTER":76.2614,"MEAN_ANOMALY":283.871,"EPHEMERIS_TYPE":0,"CLASSIFICATION_TYPE":"U","NORAD_CAT_ID":48226,"ELEMENT_SET_NO":999,"REV_AT_EPOCH":23605,"BSTAR":-0.00022246887,"MEAN_MOTION_DOT":-7.0e-7,"MEAN_MOTION_DDOT":0},{"OBJECT_NAME":"ONEWEB-0206","OBJECT_ID":"2021-031T","EPOCH":"2026-03-16T04:06:12.880224","MEAN_MOTION":13.14503692,"ECCENTRICITY":0.00015943,"INCLINATION":87.8982,"RA_OF_ASC_NODE":308.2569,"ARG_OF_PERICENTER":91.0055,"MEAN_ANOMALY":269.1257,"EPHEMERIS_TYPE":0,"CLASSIFICATION_TYPE":"U","NORAD_CAT_ID":48227,"ELEMENT_SET_NO":999,"REV_AT_EPOCH":23600,"BSTAR":0.00075000841,"MEAN_MOTION_DOT":2.91e-6,"MEAN_MOTION_DDOT":0},{"OBJECT_NAME":"ONEWEB-0182","OBJECT_ID":"2021-031U","EPOCH":"2026-03-16T03:59:22.197696","MEAN_MOTION":13.14503101,"ECCENTRICITY":0.00014767,"INCLINATION":87.8972,"RA_OF_ASC_NODE":308.27,"ARG_OF_PERICENTER":76.7781,"MEAN_ANOMALY":283.3514,"EPHEMERIS_TYPE":0,"CLASSIFICATION_TYPE":"U","NORAD_CAT_ID":48228,"ELEMENT_SET_NO":999,"REV_AT_EPOCH":23621,"BSTAR":0.00056033603,"MEAN_MOTION_DOT":2.21e-6,"MEAN_MOTION_DDOT":0},{"OBJECT_NAME":"ONEWEB-0186","OBJECT_ID":"2021-031V","EPOCH":"2026-03-16T04:15:21.192768","MEAN_MOTION":13.14503327,"ECCENTRICITY":0.00017076,"INCLINATION":87.8977,"RA_OF_ASC_NODE":308.2554,"ARG_OF_PERICENTER":78.9718,"MEAN_ANOMALY":281.1604,"EPHEMERIS_TYPE":0,"CLASSIFICATION_TYPE":"U","NORAD_CAT_ID":48229,"ELEMENT_SET_NO":999,"REV_AT_EPOCH":23616,"BSTAR":0.00065437159,"MEAN_MOTION_DOT":2.55e-6,"MEAN_MOTION_DDOT":0},{"OBJECT_NAME":"ONEWEB-0181","OBJECT_ID":"2021-031W","EPOCH":"2026-03-16T03:43:22.910592","MEAN_MOTION":13.14508795,"ECCENTRICITY":0.00016237,"INCLINATION":87.8959,"RA_OF_ASC_NODE":308.3005,"ARG_OF_PERICENTER":79.4924,"MEAN_ANOMALY":280.6389,"EPHEMERIS_TYPE":0,"CLASSIFICATION_TYPE":"U","NORAD_CAT_ID":48230,"ELEMENT_SET_NO":999,"REV_AT_EPOCH":23601,"BSTAR":-0.0025611566,"MEAN_MOTION_DOT":-9.37e-6,"MEAN_MOTION_DDOT":0},{"OBJECT_NAME":"ONEWEB-0188","OBJECT_ID":"2021-031X","EPOCH":"2026-03-16T04:38:11.205600","MEAN_MOTION":13.14502935,"ECCENTRICITY":0.0001667,"INCLINATION":87.8967,"RA_OF_ASC_NODE":308.2911,"ARG_OF_PERICENTER":80.8595,"MEAN_ANOMALY":279.2723,"EPHEMERIS_TYPE":0,"CLASSIFICATION_TYPE":"U","NORAD_CAT_ID":48231,"ELEMENT_SET_NO":999,"REV_AT_EPOCH":23592,"BSTAR":-0.0001416799,"MEAN_MOTION_DOT":-4.0e-7,"MEAN_MOTION_DDOT":0}]
