ONEWEB-0198             
1 48216U 21031G   26075.13464809 -.00000119  00000+0 -35653-3 0  9990
2 48216  87.8970 308.2888 0002106  79.3782 280.7585 13.14502984236265
ONEWEB-0189             
1 48217U 21031H   26075.14719779  .00000002  00000+0 -29058-4 0  9994
2 48217  87.8976 308.2633 0002041  80.8861 279.2499 13.14503489236003
ONEWEB-0196             
1 48218U 21031J   26075.20110837 -.00000104  00000+0 -31381-3 0  9997
2 48218  87.8976 308.2634 0001796  79.5906 280.5426 13.14503804236013
ONEWEB-0183             
1 48219U 21031K   26075.17574251  .00000314  00000+0  81123-3 0  9998
2 48219  87.8974 308.2686 0001499  76.0021 284.1275 13.14502950236102
ONEWEB-0185             
1 48220U 21031L   26075.12578526 -.00000176  00000+0 -50862-3 0  9998
2 48220  87.8979 308.2640 0001695  68.1881 291.9429 13.14502239236021
ONEWEB-0187             
1 48221U 21031M   26075.18194737  .00000251  00000+0  64118-3 0  9994
2 48221  87.8965 308.2846 0001812  74.6777 285.4553 13.14503037236047
ONEWEB-0192             
1 48222U 21031N   26075.15195242  .00000078  00000+0  17571-3 0  9992
2 48222  87.8961 308.2795 0001753  83.4764 276.6565 13.14503384235954
ONEWEB-0219             
1 48223U 21031P   26075.13133209 -.00000117  00000+0 -35069-3 0  9994
2 48223  87.8975 308.2691 0001740  73.8188 286.3134 13.14503756236150
ONEWEB-0202             
1 48224U 21031Q   26075.11230337  .00000072  00000+0  15980-3 0  9991
2 48224  87.8975 308.2819 0002352  87.5149 272.6250 13.14501432236136
ONEWEB-0204             
1 48225U 21031R   26075.14639293  .00000016  00000+0  85093-5 0  9991
2 48225  87.8973 308.2690 0001448  73.7419 286.3870 13.14504487236036
ONEWEB-0205             
1 48226U 21031S   26075.19793833 -.00000070  00000+0 -22247-3 0  9990
2 48226  87.8976 308.2511 0001742  76.2614 283.8710 13.14503412236058
ONEWEB-0206             
1 48227U 21031T   26075.17098241  .00000291  00000+0  75001-3 0  9999
2 48227  87.8982 308.2569 0001594  91.0055 269.1257 13.14503692236006
ONEWEB-0182             
1 48228U 21031U   26075.16622914  .00000221  00000+0  56034-3 0  9997
2 48228  87.8972 308.2700 0001476  76.7781 283.3514 13.14503101236210
ONEWEB-0186             
1 48229U 21031V   26075.17732862  .00000255  00000+0  65437-3 0  9997
2 48229  87.8977 308.2554 0001707  78.9718 281.1604 13.14503327236164
ONEWEB-0181             
1 48230U 21031W   26075.15512628 -.00000937  00000+0 -25612-2 0  9992
2 48230  87.8959 308.3005 0001623  79.4924 280.6389 13.14508795236012
ONEWEB-0188             
1 48231U 21031X   26075.19318525 -.00000040  00000+0 -14168-3 0  9997
2 48231  87.8967 308.2911 0001667  80.8595 279.2723 13.14502935235920
